STARLINK-11292 [DTC]    
1 61203U 24171D   26068.59536494 -.00002837  00000+0 -18574-4 0  9994
2 61203  53.1598 176.7479 0001102  77.3975 282.7166 15.69698144 84386
ISS OBJECT XU           
1 66908U 98067XU  26068.19895314  .00161175  00000+0  13351-2 0  9996
2 66908  51.6248  68.1144 0004893  76.6698 283.4844 15.69191892 15108
