[{"OBJECT_NAME":"STARLINK-11292 [DTC]","OBJECT_ID":"2024-171D","EPOCH":"2026-03-09T14:17:19.530816","MEAN_MOTION":15.69698144,"ECCENTRICITY":0.0001102,"INCLINATION":53.1598,"RA_OF_ASC_NODE":176.7479,"ARG_OF_PERICENTER":77.3975,"MEAN_ANOMALY":282.7166,"EPHEMERIS_TYPE":0,"CLASSIFICATION_TYPE":"U","NORAD_CAT_ID":61203,"ELEMENT_SET_NO":999,"REV_AT_EPOCH":8438,"BSTAR":-1.8574e-5,"MEAN_MOTION_DOT":-2.837e-5,"MEAN_MOTION_DDOT":0},{"OBJECT_NAME":"ISS OBJECT XU","OBJECT_ID":"1998-067XU","EPOCH":"2026-03-09T04:46:29.551296","MEAN_MOTION":15.69191892,"ECCENTRICITY":0.00048935,"INCLINATION":51.6248,"RA_OF_ASC_NODE":68.1144,"ARG_OF_PERICENTER":76.6698,"MEAN_ANOMALY":283.4844,"EPHEMERIS_TYPE":0,"CLASSIFICATION_TYPE":"U","NORAD_CAT_ID":66908,"ELEMENT_SET_NO":999,"REV_AT_EPOCH":1510,"BSTAR":0.0013351438,"MEAN_MOTION_DOT":0.00161175,"MEAN_MOTION_DDOT":0}]
